NORAD_CAT_ID,OBJECT_NAME,OBJECT_TYPE,EPOCH,MEAN_MOTION,ECCENTRICITY,INCLINATION,RA_OF_ASC_NODE,ARG_OF_PERICENTER,MEAN_ANOMALY,BSTAR,MEAN_MOTION_DOT,MEAN_MOTION_DDOT,TLE_LINE0,TLE_LINE1,TLE_LINE2,SEMIMAJOR_AXIS,PERIOD,APOGEE,PERIGEE,DECAYED
55643.0,STARLINK-5483,PAYLOAD,2023-06-17 06:00:02,15.16608212,0.0003379,69.9986,177.1518,273.3193,182.65,-0.05114,-0.00927268,0.0,0 STARLINK-5483,1 55643U 23021R   23168.25002315 -.00927268  00000-0 -51140-1 0  9997,2 55643  69.9986 177.1518 0003379 273.3193 182.6500 15.16608212 19220,6894.237,94.949,518.432,513.773,0.0
55643.0,STARLINK-5483,PAYLOAD,2023-06-17 08:45:40,15.18019234,0.0003358,69.9968,176.8572,285.0887,74.991,-0.013636,-0.00268263,0.0,0 STARLINK-5483,1 55643U 23021R   23168.36504815 -.00268263  00000-0 -13636-1 0  9992,2 55643  69.9968 176.8572 0003358 285.0887  74.9910 15.18019234 19548,6889.965,94.86,514.143,509.516,0.0
55643.0,STARLINK-5483,PAYLOAD,2023-06-17 22:00:01,15.15298793,0.0003294,69.9985,175.4242,269.5551,223.6468,-0.051109,-0.0089512,0.0,0 STARLINK-5483,1 55643U 23021R   23168.91668981 -.00895120  00000-0 -51109-1 0  9993,2 55643  69.9985 175.4242 0003294 269.5551 223.6468 15.15298793  1302,6898.209,95.031,522.346,517.801,0.0
55643.0,STARLINK-5483,PAYLOAD,2023-06-18 10:06:26,15.16052274,0.0004513,69.9981,174.1229,276.4343,83.6311,-0.014083,-0.00262157,0.0,0 STARLINK-5483,1 55643U 23021R   23169.42114062 -.00262157  00000-0 -14083-1 0  9994,2 55643  69.9981 174.1229 0004513 276.4343  83.6311 15.16052274 19707,6895.923,94.984,520.9,514.676,0.0
55643.0,STARLINK-5483,PAYLOAD,2023-06-18 14:00:01,15.14027515,0.000326,69.9983,173.7,274.8134,252.493,-0.057435,-0.00964623,0.0,0 STARLINK-5483,1 55643U 23021R   23169.58335648 -.00964623  00000-0 -57435-1 0  9991,2 55643  69.9983 173.7000 0003260 274.8134 252.4930 15.14027515 19429,6902.07,95.111,526.185,521.684,0.0
55643.0,STARLINK-5483,PAYLOAD,2023-06-18 22:00:00,15.13347514,0.0003255,69.9986,172.8395,267.868,275.2625,-0.054583,-0.00903956,0.0,0 STARLINK-5483,1 55643U 23021R   23169.91667824 -.00903956  00000-0 -54583-1 0  9995,2 55643  69.9986 172.8395 0003255 267.8680 275.2625 15.13347514  1306,6904.137,95.153,528.249,523.755,0.0
55643.0,STARLINK-5483,PAYLOAD,2023-06-19 04:00:00,15.12873453,0.0003366,69.9989,172.1945,271.7461,192.7872,-0.058373,-0.00950215,0.0,0 STARLINK-5483,1 55643U 23021R   23170.16667824 -.00950215  00000-0 -58373-1 0  9995,2 55643  69.9989 172.1945 0003366 271.7461 192.7872 15.12873453 19511,6905.579,95.183,529.769,525.12,0.0
55643.0,STARLINK-5483,PAYLOAD,2023-06-19 14:00:01,15.12071632,0.0003262,69.9986,171.1205,273.1992,299.3443,-0.060877,-0.00967521,0.0,0 STARLINK-5483,1 55643U 23021R   23170.58334491 -.00967521  00000-0 -60877-1 0  9992,2 55643  69.9986 171.1205 0003262 273.1992 299.3443 15.12071632  1301,6908.02,95.234,532.139,527.632,0.0
55643.0,STARLINK-5483,PAYLOAD,2023-06-19 22:00:00,15.11395991,0.0003273,69.9989,170.2625,266.6721,319.4094,-0.058201,-0.00912026,0.0,0 STARLINK-5483,1 55643U 23021R   23170.91667824 -.00912026  00000-0 -58201-1 0  9996,2 55643  69.9989 170.2625 0003273 266.6721 319.4094 15.11395991 19625,6910.079,95.276,534.205,529.682,0.0
55643.0,STARLINK-5483,PAYLOAD,2023-06-20 14:00:01,15.10114916,0.0003286,69.9989,168.5487,272.3369,338.4666,-0.064404,-0.00969242,0.0,0 STARLINK-5483,1 55643U 23021R   23171.58334491 -.00969242  00000-0 -64404-1 0  9995,2 55643  69.9989 168.5487 0003286 272.3369 338.4666 15.10114916 19729,6913.986,95.357,538.123,533.579,0.0
55643.0,STARLINK-5483,PAYLOAD,2023-06-20 22:00:00,15.0944256,0.0003311,69.9993,167.6934,266.2569,355.7362,-0.061813,-0.00917222,0.0,0 STARLINK-5483,1 55643U 23021R   23171.91667824 -.00917222  00000-0 -61813-1 0  9993,2 55643  69.9993 167.6934 0003311 266.2569 355.7362 15.09442560  1301,6916.039,95.399,540.194,535.614,0.0
55643.0,STARLINK-5483,PAYLOAD,2023-06-21 06:00:00,15.08765514,0.0003276,69.9994,166.8387,270.9182,1.4984,-0.06151,-0.00897404,0.0,0 STARLINK-5483,1 55643U 23021R   23172.25001157 -.00897404  00000-0 -61510-1 0  9995,2 55643  69.9994 166.8387 0003276 270.9182   1.4984 15.08765514 19825,6918.108,95.442,542.239,537.707,0.0
55643.0,STARLINK-5483,PAYLOAD,2023-06-21 14:00:01,15.08157801,0.000326,69.9993,165.9849,272.3485,9.6753,-0.068079,-0.00970709,0.0,0 STARLINK-5483,1 55643U 23021R   23172.58334491 -.00970709  00000-0 -68079-1 0  9998,2 55643  69.9993 165.9849 0003260 272.3485   9.6753 15.08157801  1304,6919.966,95.481,544.087,539.575,0.0
55643.0,STARLINK-5483,PAYLOAD,2023-06-21 22:00:01,15.07487237,0.0003314,69.9997,165.1321,266.4263,24.5014,-0.065411,-0.00919765,0.0,0 STARLINK-5483,1 55643U 23021R   23172.91668981 -.00919765  00000-0 -65411-1 0  9991,2 55643  69.9997 165.1321 0003314 266.4263  24.5014 15.07487237 19935,6922.018,95.523,546.177,541.589,0.0
55643.0,STARLINK-5483,PAYLOAD,2023-06-22 20:00:01,15.05659874,0.0003143,69.9999,162.7912,267.5928,313.566,-0.064457,-0.00866442,0.0,0 STARLINK-5483,1 55643U 23021R   23173.83334491 -.00866442  00000-0 -64457-1 0  9991,2 55643  69.9999 162.7912 0003143 267.5928 313.5660 15.05659874 20066,6927.618,95.639,551.66,547.306,0.0
55643.0,STARLINK-5483,PAYLOAD,2023-06-23 06:00:00,15.04847553,0.0003219,70.0,161.7294,272.3474,46.0793,-0.067544,-0.00886741,0.0,0 STARLINK-5483,1 55643U 23021R   23174.25001157 -.00886741  00000-0 -67544-1 0  9992,2 55643  70.0000 161.7294 0003219 272.3474  46.0793 15.04847553 20133,6930.111,95.691,554.206,549.745,0.0
55643.0,STARLINK-5483,PAYLOAD,2023-06-23 22:00:01,15.03577447,0.0003256,70.0001,160.0332,267.9009,59.6481,-0.073203,-0.00925744,0.0,0 STARLINK-5483,1 55643U 23021R   23174.91668981 -.00925744  00000-0 -73203-1 0  9995,2 55643  70.0001 160.0332 0003256 267.9009  59.6481 15.03577447 20230,6934.013,95.772,558.136,553.62,0.0
55643.0,STARLINK-5483,PAYLOAD,2023-06-24 22:00:00,15.01622834,0.0003199,70.0,157.4953,268.4528,66.7829,-0.077384,-0.00928795,0.0,0 STARLINK-5483,1 55643U 23021R   23175.91667824 -.00928795  00000-0 -77384-1 0  9994,2 55643  70.0000 157.4953 0003199 268.4528  66.7829 15.01622834 20386,6940.029,95.896,564.114,559.674,0.0
55643.0,STARLINK-5483,PAYLOAD,2023-06-25 22:00:01,14.99483423,0.0003039,69.9998,154.9647,268.663,67.3719,-0.02193,-0.00259974,0.0,0 STARLINK-5483,1 55643U 23021R   23176.91668981 -.00259974  00000-0 -21930-1 0  9992,2 55643  69.9998 154.9647 0003039 268.6630  67.3719 14.99483423 20537,6946.628,96.033,570.604,566.382,0.0
55643.0,STARLINK-5483,PAYLOAD,2023-06-26 06:00:00,14.99289953,0.0003125,69.9998,154.1228,274.5319,60.1956,0.00028063,3.341e-05,0.0,0 STARLINK-5483,1 55643U 23021R   23177.25001157  .00003341  00000-0  28063-3 0  9995,2 55643  69.9998 154.1228 0003125 274.5319  60.1956 14.99289953 20581,6947.226,96.045,571.262,566.92,0.0
55643.0,STARLINK-5483,PAYLOAD,2023-06-27 14:00:01,14.99318647,0.0003189,69.9992,150.7556,270.6845,58.5947,-0.0036258,-0.00044202,0.0,0 STARLINK-5483,1 55643U 23021R   23178.58334491 -.00044202  00000-0 -36258-2 0  9999,2 55643  69.9992 150.7556 0003189 270.6845  58.5947 14.99318647 20788,6947.137,96.044,571.218,566.787,0.0
55643.0,STARLINK-5483,PAYLOAD,2023-06-28 06:00:00,14.99306594,0.0003219,69.9994,149.0721,271.9763,54.6138,-0.00065848,-8.143e-05,0.0,0 STARLINK-5483,1 55643U 23021R   23179.25001157 -.00008143  00000-0 -65848-3 0  9996,2 55643  69.9994 149.0721 0003219 271.9763  54.6138 14.99306594 20880,6947.174,96.044,571.276,566.803,0.0
55643.0,STARLINK-5483,PAYLOAD,2023-06-29 07:46:06,14.99300555,0.0003128,69.9983,146.3613,269.5798,90.5003,4.9669e-05,5.14e-06,0.0,0 STARLINK-5483,1 55643U 23021R   23180.32368506  .00000514  00000-0  49669-4 0  9996,2 55643  69.9983 146.3613 0003128 269.5798  90.5003 14.99300555 21048,6947.193,96.045,571.231,566.885,0.0
55643.0,STARLINK-5483,PAYLOAD,2023-06-30 14:11:28,14.99301155,0.0002967,69.9989,143.1605,271.6665,88.4154,-3.2666e-05,-4.94e-06,0.0,0 STARLINK-5483,1 55643U 23021R   23181.59130430 -.00000494  00000-0 -32666-4 0  9997,2 55643  69.9989 143.1605 0002967 271.6665  88.4154 14.99301155 21238,6947.191,96.045,571.118,566.995,0.0
55643.0,STARLINK-5483,PAYLOAD,2023-07-01 06:12:16,14.99247378,0.0002649,69.9991,141.4764,248.2439,111.8438,-0.00057117,-7.066e-05,0.0,0 STARLINK-5483,1 55643U 23021R   23182.25851939 -.00007066  00000-0 -57117-3 0  9994,2 55643  69.9991 141.4764 0002649 248.2439 111.8438 14.99247378 21337,6947.357,96.048,571.063,567.382,0.0
55643.0,STARLINK-5483,PAYLOAD,2023-07-01 14:12:58,14.99025975,0.0001927,69.9991,140.635,290.55,69.5452,-0.0027996,-0.0003394,0.0,0 STARLINK-5483,1 55643U 23021R   23182.59234336 -.00033940  00000-0 -27996-2 0  9998,2 55643  69.9991 140.6350 0001927 290.5500  69.5452 14.99025975 21383,6948.041,96.062,571.245,568.568,0.0
55643.0,STARLINK-5483,PAYLOAD,2023-07-02 03:02:06,14.98744527,0.0002881,69.9988,139.2879,272.4689,87.6141,-0.0052948,-0.00063378,0.0,0 STARLINK-5483,1 55643U 23021R   23183.12646016 -.00063378  00000-0 -52948-2 0  9993,2 55643  69.9988 139.2879 0002881 272.4689  87.6141 14.98744527 21461,6948.911,96.08,572.778,568.774,0.0
55643.0,STARLINK-5483,PAYLOAD,2023-07-02 14:14:53,14.98692557,0.0003012,69.9987,138.109,274.566,85.5155,-0.0051374,-0.00061432,0.0,0 STARLINK-5483,1 55643U 23021R   23183.59367806 -.00061432  00000-0 -51374-2 0  9992,2 55643  69.9987 138.1090 0003012 274.5660  85.5155 14.98692557 21537,6949.072,96.084,573.03,568.844,0.0
55643.0,STARLINK-5483,PAYLOAD,2023-07-03 03:03:49,14.98641963,0.0002956,69.9982,136.7618,271.1865,88.8955,-0.0047646,-0.00056942,0.0,0 STARLINK-5483,1 55643U 23021R   23184.12765819 -.00056942  00000-0 -47646-2 0  9995,2 55643  69.9982 136.7618 0002956 271.1865  88.8955 14.98641963 21616,6949.228,96.087,573.148,569.039,0.0
55643.0,STARLINK-5483,PAYLOAD,2023-07-03 14:16:41,14.98592963,0.0003062,69.9985,135.5834,275.769,84.312,-0.0043733,-0.00052242,0.0,0 STARLINK-5483,1 55643U 23021R   23184.59492079 -.00052242  00000-0 -43733-2 0  9993,2 55643  69.9985 135.5834 0003062 275.7690  84.3120 14.98592963 21688,6949.38,96.09,573.373,569.117,0.0
